{
  "type": "FeatureCollection",
  "features": [
    {
      "type": "Feature",
      "properties": {
        "norad_id": 38857,
        "name": "GSAT0103 (GALILEO-FM3)",
        "group": "gnss",
        "lat": 44.70591053988006,
        "lon": -115.68540243033898,
        "alt_km": 23222.98069591869,
        "timestamp": "2025-12-07T20:38:14.308888+00:00",
        "meta_object_name": "GSAT0103 (GALILEO-FM3)",
        "meta_object_id": "2012-055A",
        "meta_epoch": "2025-12-06T11:43:28.953984",
        "meta_mean_motion": 1.7047325,
        "meta_eccentricity": 0.00024686,
        "meta_inclination": 55.6879,
        "meta_ra_of_asc_node": 106.8382,
        "meta_arg_of_pericenter": 267.747,
        "meta_mean_anomaly": 92.1776,
        "meta_ephemeris_type": 0,
        "meta_classification_type": "U",
        "meta_norad_cat_id": 38857,
        "meta_element_set_no": 999,
        "meta_rev_at_epoch": 8172,
        "meta_bstar": 0,
        "meta_mean_motion_dot": 7e-08,
        "meta_mean_motion_ddot": 0,
        "tle_line1": "1 38857U 12055A   25340.48852956  .00000007  00000+0  00000+0 0  9990",
        "tle_line2": "2 38857  55.6879 106.8382 0002468 267.7470  92.1776  1.70473250 81723"
      },
      "geometry": {
        "type": "Point",
        "coordinates": [
          -115.68540243033898,
          44.70591053988006
        ]
      }
    },
    {
      "type": "Feature",
      "properties": {
        "norad_id": 38953,
        "name": "BEIDOU-2 G6 (C02)",
        "group": "gnss",
        "lat": 2.2769269578323774,
        "lon": 110.49132001790827,
        "alt_km": 35794.7768682372,
        "timestamp": "2025-12-07T20:38:14.308901+00:00",
        "meta_object_name": "BEIDOU-2 G6 (C02)",
        "meta_object_id": "2012-059A",
        "meta_epoch": "2025-12-07T03:45:41.706144",
        "meta_mean_motion": 1.0027022,
        "meta_eccentricity": 0.00075945,
        "meta_inclination": 3.9346,
        "meta_ra_of_asc_node": 75.5577,
        "meta_arg_of_pericenter": 289.3126,
        "meta_mean_anomaly": 211.7788,
        "meta_ephemeris_type": 0,
        "meta_classification_type": "U",
        "meta_norad_cat_id": 38953,
        "meta_element_set_no": 999,
        "meta_rev_at_epoch": 4798,
        "meta_bstar": 0,
        "meta_mean_motion_dot": -1.72e-06,
        "meta_mean_motion_ddot": 0,
        "tle_line1": "1 38953U 12059A   25341.15673271 -.00000172  00000+0  00000+0 0  9991",
        "tle_line2": "2 38953   3.9346  75.5577 0007594 289.3126 211.7788  1.00270220 47983"
      },
      "geometry": {
        "type": "Point",
        "coordinates": [
          110.49132001790827,
          2.2769269578323774
        ]
      }
    },
    {
      "type": "Feature",
      "properties": {
        "norad_id": 38977,
        "name": "LUCH 5B (SDCM/PRN 125)",
        "group": "gnss",
        "lat": -6.660594906868159,
        "lon": 10.597831580864826,
        "alt_km": 35806.594040791875,
        "timestamp": "2025-12-07T20:38:14.308912+00:00",
        "meta_object_name": "LUCH 5B (SDCM/PRN 125)",
        "meta_object_id": "2012-061A",
        "meta_epoch": "2025-12-05T23:12:38.603808",
        "meta_mean_motion": 1.00272178,
        "meta_eccentricity": 0.00074333,
        "meta_inclination": 10.0624,
        "meta_ra_of_asc_node": 51.767,
        "meta_arg_of_pericenter": 189.4366,
        "meta_mean_anomaly": 165.6208,
        "meta_ephemeris_type": 0,
        "meta_classification_type": "U",
        "meta_norad_cat_id": 38977,
        "meta_element_set_no": 999,
        "meta_rev_at_epoch": 4766,
        "meta_bstar": 0,
        "meta_mean_motion_dot": -1.35e-06,
        "meta_mean_motion_ddot": 0,
        "tle_line1": "1 38977U 12061A   25339.96711347 -.00000135  00000+0  00000+0 0  9992",
        "tle_line2": "2 38977  10.0624  51.7670 0007433 189.4366 165.6208  1.00272178 47668"
      },
      "geometry": {
        "type": "Point",
        "coordinates": [
          10.597831580864826,
          -6.660594906868159
        ]
      }
    },
    {
      "type": "Feature",
      "properties": {
        "norad_id": 39155,
        "name": "COSMOS 2485 (747)",
        "group": "gnss",
        "lat": -41.90934391724016,
        "lon": 55.69439440638197,
        "alt_km": 19127.731211778344,
        "timestamp": "2025-12-07T20:38:14.308924+00:00",
        "meta_object_name": "COSMOS 2485 (747)",
        "meta_object_id": "2013-019A",
        "meta_epoch": "2025-12-05T02:32:45.729312",
        "meta_mean_motion": 2.13102875,
        "meta_eccentricity": 0.00246247,
        "meta_inclination": 65.3094,
        "meta_ra_of_asc_node": 80.124,
        "meta_arg_of_pericenter": 229.2984,
        "meta_mean_anomaly": 130.4888,
        "meta_ephemeris_type": 0,
        "meta_classification_type": "U",
        "meta_norad_cat_id": 39155,
        "meta_element_set_no": 999,
        "meta_rev_at_epoch": 9814,
        "meta_bstar": 0,
        "meta_mean_motion_dot": -2.1e-07,
        "meta_mean_motion_ddot": 0,
        "tle_line1": "1 39155U 13019A   25339.10608483 -.00000021  00000+0  00000+0 0  9991",
        "tle_line2": "2 39155  65.3094  80.1240 0024624 229.2984 130.4888  2.13102875 98144"
      },
      "geometry": {
        "type": "Point",
        "coordinates": [
          55.69439440638197,
          -41.90934391724016
        ]
      }
    },
    {
      "type": "Feature",
      "properties": {
        "norad_id": 39166,
        "name": "GPS BIIF-4  (PRN 27)",
        "group": "gnss",
        "lat": 54.147726548736884,
        "lon": 18.027990631772628,
        "alt_km": 19929.047669534917,
        "timestamp": "2025-12-07T20:38:14.308935+00:00",
        "meta_object_name": "GPS BIIF-4  (PRN 27)",
        "meta_object_id": "2013-023A",
        "meta_epoch": "2025-12-07T05:32:23.727552",
        "meta_mean_motion": 2.00565061,
        "meta_eccentricity": 0.01375526,
        "meta_inclination": 54.6569,
        "meta_ra_of_asc_node": 276.7922,
        "meta_arg_of_pericenter": 48.5552,
        "meta_mean_anomaly": 312.629,
        "meta_ephemeris_type": 0,
        "meta_classification_type": "U",
        "meta_norad_cat_id": 39166,
        "meta_element_set_no": 999,
        "meta_rev_at_epoch": 9203,
        "meta_bstar": 0,
        "meta_mean_motion_dot": -3.4e-07,
        "meta_mean_motion_ddot": 0,
        "tle_line1": "1 39166U 13023A   25341.23083018 -.00000034  00000+0  00000+0 0  9990",
        "tle_line2": "2 39166  54.6569 276.7922 0137552  48.5552 312.6290  2.00565061 92031"
      },
      "geometry": {
        "type": "Point",
        "coordinates": [
          18.027990631772628,
          54.147726548736884
        ]
      }
    },
    {
      "type": "Feature",
      "properties": {
        "norad_id": 39199,
        "name": "IRNSS-1A",
        "group": "gnss",
        "lat": 8.641998577051217,
        "lon": 79.00688078603434,
        "alt_km": 35873.24759574871,
        "timestamp": "2025-12-07T20:38:14.308946+00:00",
        "meta_object_name": "IRNSS-1A",
        "meta_object_id": "2013-034A",
        "meta_epoch": "2025-12-02T19:49:26.431104",
        "meta_mean_motion": 1.00279053,
        "meta_eccentricity": 0.00216608,
        "meta_inclination": 35.2852,
        "meta_ra_of_asc_node": 66.6964,
        "meta_arg_of_pericenter": 185.4059,
        "meta_mean_anomaly": 172.3398,
        "meta_ephemeris_type": 0,
        "meta_classification_type": "U",
        "meta_norad_cat_id": 39199,
        "meta_element_set_no": 999,
        "meta_rev_at_epoch": 4539,
        "meta_bstar": 0,
        "meta_mean_motion_dot": 6.5e-07,
        "meta_mean_motion_ddot": 0,
        "tle_line1": "1 39199U 13034A   25336.82600036  .00000065  00000+0  00000+0 0  9995",
        "tle_line2": "2 39199  35.2852  66.6964 0021660 185.4059 172.3398  1.00279053 45393"
      },
      "geometry": {
        "type": "Point",
        "coordinates": [
          79.00688078603434,
          8.641998577051217
        ]
      }
    },
    {
      "type": "Feature",
      "properties": {
        "norad_id": 39533,
        "name": "GPS BIIF-5  (PRN 30)",
        "group": "gnss",
        "lat": 53.02001277320791,
        "lon": -101.1373217150721,
        "alt_km": 20307.383605921474,
        "timestamp": "2025-12-07T20:38:14.308961+00:00",
        "meta_object_name": "GPS BIIF-5  (PRN 30)",
        "meta_object_id": "2014-008A",
        "meta_epoch": "2025-12-06T17:26:15.806112",
        "meta_mean_motion": 2.00574018,
        "meta_eccentricity": 0.00790593,
        "meta_inclination": 53.6301,
        "meta_ra_of_asc_node": 157.1699,
        "meta_arg_of_pericenter": 226.4148,
        "meta_mean_anomaly": 132.9387,
        "meta_ephemeris_type": 0,
        "meta_classification_type": "U",
        "meta_norad_cat_id": 39533,
        "meta_element_set_no": 999,
        "meta_rev_at_epoch": 8582,
        "meta_bstar": 0,
        "meta_mean_motion_dot": 5.9e-07,
        "meta_mean_motion_ddot": 0,
        "tle_line1": "1 39533U 14008A   25340.72657183  .00000059  00000+0  00000+0 0  9991",
        "tle_line2": "2 39533  53.6301 157.1699 0079059 226.4148 132.9387  2.00574018 85821"
      },
      "geometry": {
        "type": "Point",
        "coordinates": [
          -101.1373217150721,
          53.02001277320791
        ]
      }
    }
  ]
}